*******************************************************************************
Ephemeris / WWW_USER Mon Jul 15 19:25:51 2024 Pasadena, USA      / Horizons    
*******************************************************************************
Target body name: (2018 RA1)                      {source: JPL#6}
Center body name: Earth (399)                     {source: DE441}
Center-site name: Gemini South Obs., Cerro Pachon
*******************************************************************************
Start time      : A.D. 2019-Jan-16 23:57:00.0000 UT      
Stop  time      : A.D. 2019-Jan-17 09:48:00.0000 UT      
Step-size       : 1 minutes
*******************************************************************************
Target pole/equ : undefined
Target radii    : undefined                                                    
Center geodetic : 289.2634, -30.2406227, 2.71233  {E-lon(deg),Lat(deg),Alt(km)}
Center cylindric: 289.2634,5517.21435,-3194.81213 {E-lon(deg),Dxy(km),Dz(km)}
Center pole/equ : ITRF93                          {East-longitude positive}
Center radii    : 6378.137, 6378.137, 6356.752 km {Equator_a, b, pole_c}       
Target primary  : Sun
Vis. interferer : MOON (R_eq= 1737.400) km        {source: DE441}
Rel. light bend : Sun                             {source: DE441}
Rel. lght bnd GM: 1.3271E+11 km^3/s^2                                          
Small-body perts: Yes                             {source: SB441-N16}
Atmos refraction: NO (AIRLESS)
RA format       : HMS
Time format     : CAL 
Calendar mode   : Mixed Julian/Gregorian
RTS-only print  : NO       
EOP file        : eop.240715.p241008                                           
EOP coverage    : DATA-BASED 1962-JAN-20 TO 2024-JUL-15. PREDICTS-> 2024-OCT-07
Units conversion: 1 au= 149597870.700 km, c= 299792.458 km/s, 1 day= 86400.0 s 
Table cut-offs 1: Elevation (-90.0deg=NO ),Airmass (>38.000=NO), Daylight (YES)
Table cut-offs 2: Solar elongation (  0.0,180.0=NO ),Local Hour Angle( 0.0=NO )
Table cut-offs 3: RA/DEC angular rate (     0.0=NO )                           
*******************************************************************************
Initial IAU76/J2000 heliocentric ecliptic osculating elements (au, days, deg.):
  EPOCH=  2458369.5 ! 2018-Sep-08.00 (TDB)         Residual RMS= .21275        
   EC= .3232115344739424   QR= .7703453101153647   TP= 2458436.6763547547      
   OM= 166.2054176892707   W=  269.7217787981747   IN= 8.763099478405824       
  Equivalent ICRF heliocentric cartesian coordinates (au, au/d):
   X= 9.899686155013647E-01  Y=-2.468208982240139E-01  Z=-1.030323866474361E-01
  VX=-9.411283005844916E-04 VY= 1.717513364149167E-02 VZ= 4.613440841260365E-03
Asteroid physical parameters (km, seconds, rotational period in hours):        
   GM= n.a.                RAD= n.a.               ROTPER= n.a.                
   H= 26.4                 G= .150                 B-V= n.a.                   
                           ALBEDO= n.a.            STYP= n.a.                  
*******************************************************************************
 Date__(UT)__HR:MN     R.A._________(ICRF)_________DEC
******************************************************
$$SOE
 2019-Jan-16 23:57 Cm  15 01 53.163528 -17 43 27.88810
 2019-Jan-16 23:58 Cm  15 01 53.281904 -17 43 27.88916
 2019-Jan-16 23:59 Cm  15 01 53.400280 -17 43 27.89026
 2019-Jan-17 00:00 Cm  15 01 53.518656 -17 43 27.89141
 2019-Jan-17 00:01 Cm  15 01 53.637031 -17 43 27.89262
 2019-Jan-17 00:02 Cm  15 01 53.755406 -17 43 27.89387
 2019-Jan-17 00:03 Cm  15 01 53.873780 -17 43 27.89518
 2019-Jan-17 00:04 Cm  15 01 53.992154 -17 43 27.89653
 2019-Jan-17 00:05 Cm  15 01 54.110526 -17 43 27.89794
 2019-Jan-17 00:06 Cm  15 01 54.228899 -17 43 27.89940
 2019-Jan-17 00:07 Cm  15 01 54.347270 -17 43 27.90090
 2019-Jan-17 00:08 Cm  15 01 54.465641 -17 43 27.90246
 2019-Jan-17 00:09 Cm  15 01 54.584011 -17 43 27.90407
 2019-Jan-17 00:10 Cm  15 01 54.702380 -17 43 27.90573
 2019-Jan-17 00:11 Cm  15 01 54.820748 -17 43 27.90744
 2019-Jan-17 00:12 Cm  15 01 54.939115 -17 43 27.90920
 2019-Jan-17 00:13 Cm  15 01 55.057480 -17 43 27.91101
 2019-Jan-17 00:14 Cm  15 01 55.175845 -17 43 27.91288
 2019-Jan-17 00:15 Cm  15 01 55.294209 -17 43 27.91479
 2019-Jan-17 00:16 Nm  15 01 55.412571 -17 43 27.91675
 2019-Jan-17 00:17 Nm  15 01 55.530932 -17 43 27.91876
 2019-Jan-17 00:18 Nm  15 01 55.649291 -17 43 27.92083
 2019-Jan-17 00:19 Nm  15 01 55.767649 -17 43 27.92294
 2019-Jan-17 00:20 Nm  15 01 55.886006 -17 43 27.92511
 2019-Jan-17 00:21 Nm  15 01 56.004361 -17 43 27.92732
 2019-Jan-17 00:22 Nm  15 01 56.122715 -17 43 27.92959
 2019-Jan-17 00:23 Nm  15 01 56.241067 -17 43 27.93191
 2019-Jan-17 00:24 Nm  15 01 56.359417 -17 43 27.93427
 2019-Jan-17 00:25 Nm  15 01 56.477765 -17 43 27.93669
 2019-Jan-17 00:26 Nm  15 01 56.596112 -17 43 27.93916
 2019-Jan-17 00:27 Nm  15 01 56.714457 -17 43 27.94168
 2019-Jan-17 00:28 Nm  15 01 56.832799 -17 43 27.94424
 2019-Jan-17 00:29 Nm  15 01 56.951140 -17 43 27.94686
 2019-Jan-17 00:30 Nm  15 01 57.069479 -17 43 27.94953
 2019-Jan-17 00:31 Nm  15 01 57.187816 -17 43 27.95225
 2019-Jan-17 00:32 Nm  15 01 57.306151 -17 43 27.95502
 2019-Jan-17 00:33 Nm  15 01 57.424483 -17 43 27.95784
 2019-Jan-17 00:34 Nm  15 01 57.542813 -17 43 27.96071
 2019-Jan-17 00:35 Nm  15 01 57.661141 -17 43 27.96362
 2019-Jan-17 00:36 Nm  15 01 57.779466 -17 43 27.96659
 2019-Jan-17 00:37 Nm  15 01 57.897789 -17 43 27.96961
 2019-Jan-17 00:38 Nm  15 01 58.016110 -17 43 27.97268
 2019-Jan-17 00:39 Nm  15 01 58.134428 -17 43 27.97580
 2019-Jan-17 00:40 Nm  15 01 58.252744 -17 43 27.97897
 2019-Jan-17 00:41 Nm  15 01 58.371056 -17 43 27.98219
 2019-Jan-17 00:42 Nm  15 01 58.489367 -17 43 27.98546
 2019-Jan-17 00:43 Nm  15 01 58.607674 -17 43 27.98877
 2019-Jan-17 00:44 Nm  15 01 58.725979 -17 43 27.99214
 2019-Jan-17 00:45 Nm  15 01 58.844280 -17 43 27.99556
 2019-Jan-17 00:46 Nm  15 01 58.962579 -17 43 27.99903
 2019-Jan-17 00:47 Nm  15 01 59.080875 -17 43 28.00254
 2019-Jan-17 00:48 Am  15 01 59.199168 -17 43 28.00611
 2019-Jan-17 00:49 Am  15 01 59.317458 -17 43 28.00972
 2019-Jan-17 00:50 Am  15 01 59.435744 -17 43 28.01339
 2019-Jan-17 00:51 Am  15 01 59.554028 -17 43 28.01710
 2019-Jan-17 00:52 Am  15 01 59.672308 -17 43 28.02087
 2019-Jan-17 00:53 Am  15 01 59.790585 -17 43 28.02468
 2019-Jan-17 00:54 Am  15 01 59.908859 -17 43 28.02854
 2019-Jan-17 00:55 Am  15 02 00.027129 -17 43 28.03245
 2019-Jan-17 00:56 Am  15 02 00.145396 -17 43 28.03641
 2019-Jan-17 00:57 Am  15 02 00.263659 -17 43 28.04042
 2019-Jan-17 00:58 Am  15 02 00.381919 -17 43 28.04448
 2019-Jan-17 00:59 Am  15 02 00.500175 -17 43 28.04859
 2019-Jan-17 01:00 Am  15 02 00.618427 -17 43 28.05274
 2019-Jan-17 01:01 Am  15 02 00.736676 -17 43 28.05695
 2019-Jan-17 01:02 Am  15 02 00.854921 -17 43 28.06120
 2019-Jan-17 01:03 Am  15 02 00.973162 -17 43 28.06550
 2019-Jan-17 01:04 Am  15 02 01.091399 -17 43 28.06985
 2019-Jan-17 01:05 Am  15 02 01.209632 -17 43 28.07425
 2019-Jan-17 01:06 Am  15 02 01.327861 -17 43 28.07870
 2019-Jan-17 01:07 Am  15 02 01.446087 -17 43 28.08319
 2019-Jan-17 01:08 Am  15 02 01.564308 -17 43 28.08774
 2019-Jan-17 01:09 Am  15 02 01.682525 -17 43 28.09233
 2019-Jan-17 01:10 Am  15 02 01.800738 -17 43 28.09697
 2019-Jan-17 01:11 Am  15 02 01.918946 -17 43 28.10166
 2019-Jan-17 01:12 Am  15 02 02.037150 -17 43 28.10639
 2019-Jan-17 01:13 Am  15 02 02.155350 -17 43 28.11118
 2019-Jan-17 01:14 Am  15 02 02.273545 -17 43 28.11601
 2019-Jan-17 01:15 Am  15 02 02.391736 -17 43 28.12089
 2019-Jan-17 01:16 Am  15 02 02.509923 -17 43 28.12582
 2019-Jan-17 01:17 Am  15 02 02.628105 -17 43 28.13079
 2019-Jan-17 01:18 Am  15 02 02.746282 -17 43 28.13582
 2019-Jan-17 01:19 Am  15 02 02.864454 -17 43 28.14089
 2019-Jan-17 01:20 Am  15 02 02.982622 -17 43 28.14600
 2019-Jan-17 01:21 Am  15 02 03.100785 -17 43 28.15117
 2019-Jan-17 01:22  m  15 02 03.218943 -17 43 28.15638
 2019-Jan-17 01:23  m  15 02 03.337097 -17 43 28.16164
 2019-Jan-17 01:24  m  15 02 03.455245 -17 43 28.16695
 2019-Jan-17 01:25  m  15 02 03.573388 -17 43 28.17230
 2019-Jan-17 01:26  m  15 02 03.691527 -17 43 28.17770
 2019-Jan-17 01:27  m  15 02 03.809660 -17 43 28.18315
 2019-Jan-17 01:28  m  15 02 03.927788 -17 43 28.18864
 2019-Jan-17 01:29  m  15 02 04.045911 -17 43 28.19418
 2019-Jan-17 01:30  m  15 02 04.164028 -17 43 28.19977
 2019-Jan-17 01:31  m  15 02 04.282141 -17 43 28.20540
 2019-Jan-17 01:32  m  15 02 04.400248 -17 43 28.21108
 2019-Jan-17 01:33  m  15 02 04.518349 -17 43 28.21681
 2019-Jan-17 01:34  m  15 02 04.636445 -17 43 28.22258
 2019-Jan-17 01:35  m  15 02 04.754536 -17 43 28.22840
 2019-Jan-17 01:36  m  15 02 04.872621 -17 43 28.23426
 2019-Jan-17 01:37  m  15 02 04.990700 -17 43 28.24017
 2019-Jan-17 01:38  m  15 02 05.108774 -17 43 28.24613
 2019-Jan-17 01:39  m  15 02 05.226842 -17 43 28.25213
 2019-Jan-17 01:40  m  15 02 05.344904 -17 43 28.25818
 2019-Jan-17 01:41  m  15 02 05.462960 -17 43 28.26427
 2019-Jan-17 01:42  m  15 02 05.581011 -17 43 28.27041
 2019-Jan-17 01:43  m  15 02 05.699056 -17 43 28.27659
 2019-Jan-17 01:44  m  15 02 05.817094 -17 43 28.28282
 2019-Jan-17 01:45  m  15 02 05.935127 -17 43 28.28909
 2019-Jan-17 01:46  m  15 02 06.053154 -17 43 28.29541
 2019-Jan-17 01:47  m  15 02 06.171174 -17 43 28.30177
 2019-Jan-17 01:48  m  15 02 06.289188 -17 43 28.30818
 2019-Jan-17 01:49  m  15 02 06.407196 -17 43 28.31463
 2019-Jan-17 01:50  m  15 02 06.525198 -17 43 28.32113
 2019-Jan-17 01:51  m  15 02 06.643194 -17 43 28.32767
 2019-Jan-17 01:52  m  15 02 06.761183 -17 43 28.33425
 2019-Jan-17 01:53  m  15 02 06.879166 -17 43 28.34088
 2019-Jan-17 01:54  m  15 02 06.997142 -17 43 28.34756
 2019-Jan-17 01:55  m  15 02 07.115112 -17 43 28.35427
 2019-Jan-17 01:56  m  15 02 07.233075 -17 43 28.36103
 2019-Jan-17 01:57  m  15 02 07.351032 -17 43 28.36784
 2019-Jan-17 01:58  m  15 02 07.468982 -17 43 28.37469
 2019-Jan-17 01:59  m  15 02 07.586925 -17 43 28.38158
